{
  "type": "FeatureCollection",
  "features": [
    {
      "type": "Feature",
      "properties": {
        "norad_id": 66988,
        "name": "YAOGAN-47",
        "group": "last-30-days",
        "lat": -34.706235364159284,
        "lon": -125.25274870838568,
        "alt_km": 502.63196779042664,
        "timestamp": "2025-12-20T20:38:43.175103+00:00",
        "meta_object_name": "YAOGAN-47",
        "meta_object_id": "2025-289A",
        "meta_epoch": "2025-12-20T02:21:43.539840",
        "meta_mean_motion": 15.23243112,
        "meta_eccentricity": 6.467e-05,
        "meta_inclination": 97.5265,
        "meta_ra_of_asc_node": 59.2376,
        "meta_arg_of_pericenter": 91.4531,
        "meta_mean_anomaly": 268.678,
        "meta_ephemeris_type": 0,
        "meta_classification_type": "U",
        "meta_norad_cat_id": 66988,
        "meta_element_set_no": 999,
        "meta_rev_at_epoch": 166,
        "meta_bstar": 0.00010945697,
        "meta_mean_motion_dot": 2.52e-05,
        "meta_mean_motion_ddot": 0,
        "tle_line1": "1 66988U 25289A   25354.09842060  .00002520  00000+0  10946-3 0  9992",
        "tle_line2": "2 66988  97.5265  59.2376 0000646  91.4531 268.6780 15.23243112  1668"
      },
      "geometry": {
        "type": "Point",
        "coordinates": [
          -125.25274870838568,
          -34.706235364159284
        ]
      }
    },
    {
      "type": "Feature",
      "properties": {
        "norad_id": 66989,
        "name": "CZ-4B R/B",
        "group": "last-30-days",
        "lat": -74.6061757346196,
        "lon": -147.898486315465,
        "alt_km": 343.60980205505166,
        "timestamp": "2025-12-20T20:38:43.175114+00:00",
        "meta_object_name": "CZ-4B R/B",
        "meta_object_id": "2025-289B",
        "meta_epoch": "2025-12-20T04:14:22.087392",
        "meta_mean_motion": 15.68977021,
        "meta_eccentricity": 0.01434037,
        "meta_inclination": 97.5256,
        "meta_ra_of_asc_node": 60.0631,
        "meta_arg_of_pericenter": 334.7401,
        "meta_mean_anomaly": 24.6893,
        "meta_ephemeris_type": 0,
        "meta_classification_type": "U",
        "meta_norad_cat_id": 66989,
        "meta_element_set_no": 999,
        "meta_rev_at_epoch": 173,
        "meta_bstar": 0.00046062068,
        "meta_mean_motion_dot": 0.0009578,
        "meta_mean_motion_ddot": 4.888764e-06,
        "tle_line1": "1 66989U 25289B   25354.17664453  .00095780  48888-5  46062-3 0  9990",
        "tle_line2": "2 66989  97.5256  60.0631 0143403 334.7401  24.6893 15.68977021  1736"
      },
      "geometry": {
        "type": "Point",
        "coordinates": [
          -147.898486315465,
          -74.6061757346196
        ]
      }
    },
    {
      "type": "Feature",
      "properties": {
        "norad_id": 66990,
        "name": "TJS-22",
        "group": "last-30-days",
        "lat": -0.002376561774722069,
        "lon": 105.79908857145277,
        "alt_km": 35800.18985070738,
        "timestamp": "2025-12-20T20:38:43.175126+00:00",
        "meta_object_name": "TJS-22",
        "meta_object_id": "2025-290A",
        "meta_epoch": "2025-12-20T08:40:17.971968",
        "meta_mean_motion": 1.00270746,
        "meta_eccentricity": 0.00034478,
        "meta_inclination": 1.9695,
        "meta_ra_of_asc_node": 285.015,
        "meta_arg_of_pericenter": 341.9898,
        "meta_mean_anomaly": 18.7254,
        "meta_ephemeris_type": 0,
        "meta_classification_type": "U",
        "meta_norad_cat_id": 66990,
        "meta_element_set_no": 999,
        "meta_rev_at_epoch": 23,
        "meta_bstar": 0,
        "meta_mean_motion_dot": 1.9e-07,
        "meta_mean_motion_ddot": 0,
        "tle_line1": "1 66990U 25290A   25354.36131912  .00000019  00000+0  00000+0 0  9991",
        "tle_line2": "2 66990   1.9695 285.0150 0003447 341.9898  18.7254  1.00270746   232"
      },
      "geometry": {
        "type": "Point",
        "coordinates": [
          105.79908857145277,
          -0.002376561774722069
        ]
      }
    },
    {
      "type": "Feature",
      "properties": {
        "norad_id": 66991,
        "name": "CZ-3B R/B",
        "group": "last-30-days",
        "lat": 12.49896806146642,
        "lon": -37.45171678693762,
        "alt_km": 28271.975695064753,
        "timestamp": "2025-12-20T20:38:43.175138+00:00",
        "meta_object_name": "CZ-3B R/B",
        "meta_object_id": "2025-290B",
        "meta_epoch": "2025-12-15T17:23:33.043200",
        "meta_mean_motion": 2.38388611,
        "meta_eccentricity": 0.7240884,
        "meta_inclination": 28.4636,
        "meta_ra_of_asc_node": 300.4666,
        "meta_arg_of_pericenter": 182.7002,
        "meta_mean_anomaly": 168.625,
        "meta_ephemeris_type": 0,
        "meta_classification_type": "U",
        "meta_norad_cat_id": 66991,
        "meta_element_set_no": 999,
        "meta_rev_at_epoch": 16,
        "meta_bstar": 0.00075879,
        "meta_mean_motion_dot": 0.00057911,
        "meta_mean_motion_ddot": -2.0514e-07,
        "tle_line1": "1 66991U 25290B   25349.72468800  .00057911 -20514-6  75879-3 0  9998",
        "tle_line2": "2 66991  28.4636 300.4666 7240884 182.7002 168.6250  2.38388611   165"
      },
      "geometry": {
        "type": "Point",
        "coordinates": [
          -37.45171678693762,
          12.49896806146642
        ]
      }
    },
    {
      "type": "Feature",
      "properties": {
        "norad_id": 66993,
        "name": "2025-292A",
        "group": "last-30-days",
        "lat": 31.303203983272265,
        "lon": 62.64335062021944,
        "alt_km": 559.5624257578775,
        "timestamp": "2025-12-20T20:38:43.175149+00:00",
        "meta_object_name": "2025-292A",
        "meta_object_id": "2025-292A",
        "meta_epoch": "2025-12-20T14:07:13.157472",
        "meta_mean_motion": 15.0454689,
        "meta_eccentricity": 0.00140297,
        "meta_inclination": 97.6521,
        "meta_ra_of_asc_node": 67.0636,
        "meta_arg_of_pericenter": 243.4353,
        "meta_mean_anomaly": 116.5435,
        "meta_ephemeris_type": 0,
        "meta_classification_type": "U",
        "meta_norad_cat_id": 66993,
        "meta_element_set_no": 999,
        "meta_rev_at_epoch": 157,
        "meta_bstar": 0.00017652468,
        "meta_mean_motion_dot": 2.417e-05,
        "meta_mean_motion_ddot": 0,
        "tle_line1": "1 66993U 25292A   25354.58834673  .00002417  00000+0  17652-3 0  9993",
        "tle_line2": "2 66993  97.6521  67.0636 0014029 243.4353 116.5435 15.04546890  1573"
      },
      "geometry": {
        "type": "Point",
        "coordinates": [
          62.64335062021944,
          31.303203983272265
        ]
      }
    },
    {
      "type": "Feature",
      "properties": {
        "norad_id": 66994,
        "name": "2025-292B",
        "group": "last-30-days",
        "lat": 32.978493143347364,
        "lon": 62.32921603782932,
        "alt_km": 559.1434648962249,
        "timestamp": "2025-12-20T20:38:43.175159+00:00",
        "meta_object_name": "2025-292B",
        "meta_object_id": "2025-292B",
        "meta_epoch": "2025-12-20T14:06:46.736352",
        "meta_mean_motion": 15.04589511,
        "meta_eccentricity": 0.00137871,
        "meta_inclination": 97.6531,
        "meta_ra_of_asc_node": 67.0651,
        "meta_arg_of_pericenter": 243.6331,
        "meta_mean_anomaly": 116.348,
        "meta_ephemeris_type": 0,
        "meta_classification_type": "U",
        "meta_norad_cat_id": 66994,
        "meta_element_set_no": 999,
        "meta_rev_at_epoch": 157,
        "meta_bstar": 0.00020132384,
        "meta_mean_motion_dot": 2.769e-05,
        "meta_mean_motion_ddot": 0,
        "tle_line1": "1 66994U 25292B   25354.58804093  .00002769  00000+0  20132-3 0  9994",
        "tle_line2": "2 66994  97.6531  67.0651 0013787 243.6331 116.3480 15.04589511  1575"
      },
      "geometry": {
        "type": "Point",
        "coordinates": [
          62.32921603782932,
          32.978493143347364
        ]
      }
    },
    {
      "type": "Feature",
      "properties": {
        "norad_id": 66995,
        "name": "2025-292C",
        "group": "last-30-days",
        "lat": 33.49918641353525,
        "lon": 62.22848379733055,
        "alt_km": 559.1679943231529,
        "timestamp": "2025-12-20T20:38:43.175169+00:00",
        "meta_object_name": "2025-292C",
        "meta_object_id": "2025-292C",
        "meta_epoch": "2025-12-20T14:06:38.717568",
        "meta_mean_motion": 15.04616488,
        "meta_eccentricity": 0.00140842,
        "meta_inclination": 97.6521,
        "meta_ra_of_asc_node": 67.0641,
        "meta_arg_of_pericenter": 244.019,
        "meta_mean_anomaly": 115.9586,
        "meta_ephemeris_type": 0,
        "meta_classification_type": "U",
        "meta_norad_cat_id": 66995,
        "meta_element_set_no": 999,
        "meta_rev_at_epoch": 157,
        "meta_bstar": 0.00022129393,
        "meta_mean_motion_dot": 3.052e-05,
        "meta_mean_motion_ddot": 0,
        "tle_line1": "1 66995U 25292C   25354.58794812  .00003052  00000+0  22129-3 0  9996",
        "tle_line2": "2 66995  97.6521  67.0641 0014084 244.0190 115.9586 15.04616488  1579"
      },
      "geometry": {
        "type": "Point",
        "coordinates": [
          62.22848379733055,
          33.49918641353525
        ]
      }
    }
  ]
}